CCSDS_OMM_VERS = 2.0
CREATION_DATE  = 
ORIGINATOR     = 

OBJECT_NAME    = SL-14 R/B
OBJECT_ID      = 1987-055B
CENTER_NAME    = EARTH
REF_FRAME      = TEME
TIME_SYSTEM    = UTC
MEAN_ELEMENT_THEORY = SGP/SGP4

EPOCH          = 2025-12-20T16:04:38.809632
MEAN_MOTION    = 14.85528461
ECCENTRICITY   = .0019164
INCLINATION    = 82.4995
RA_OF_ASC_NODE = 63.5150
ARG_OF_PERICENTER = 275.1542
MEAN_ANOMALY   = 84.7487

EPHEMERIS_TYPE = 0
CLASSIFICATION_TYPE = U
NORAD_CAT_ID   = 18153
ELEMENT_SET_NO = 999
REV_AT_EPOCH   = 5820
BSTAR          = .38419E-4
MEAN_MOTION_DOT = .357E-5
MEAN_MOTION_DDOT = 0

CCSDS_OMM_VERS = 2.0
CREATION_DATE  = 
ORIGINATOR     = 

OBJECT_NAME    = COSMOS 1867
OBJECT_ID      = 1987-060A
CENTER_NAME    = EARTH
REF_FRAME      = TEME
TIME_SYSTEM    = UTC
MEAN_ELEMENT_THEORY = SGP/SGP4

EPOCH          = 2025-12-20T18:38:32.000064
MEAN_MOTION    = 14.31487316
ECCENTRICITY   = .001368
INCLINATION    = 65.0086
RA_OF_ASC_NODE = 167.6954
ARG_OF_PERICENTER = 271.8498
MEAN_ANOMALY   = 88.1020

EPHEMERIS_TYPE = 0
CLASSIFICATION_TYPE = U
NORAD_CAT_ID   = 18187
ELEMENT_SET_NO = 999
REV_AT_EPOCH   = 864
BSTAR          = .22362E-4
MEAN_MOTION_DOT = -.41E-6
MEAN_MOTION_DDOT = 0

CCSDS_OMM_VERS = 2.0
CREATION_DATE  = 
ORIGINATOR     = 

OBJECT_NAME    = SL-14 R/B
OBJECT_ID      = 1988-001B
CENTER_NAME    = EARTH
REF_FRAME      = TEME
TIME_SYSTEM    = UTC
MEAN_ELEMENT_THEORY = SGP/SGP4

EPOCH          = 2025-12-20T19:04:26.666976
MEAN_MOTION    = 14.85431475
ECCENTRICITY   = .0019125
INCLINATION    = 82.5136
RA_OF_ASC_NODE = 269.5715
ARG_OF_PERICENTER = 135.5673
MEAN_ANOMALY   = 224.7082

EPHEMERIS_TYPE = 0
CLASSIFICATION_TYPE = U
NORAD_CAT_ID   = 18749
ELEMENT_SET_NO = 999
REV_AT_EPOCH   = 3031
BSTAR          = .38403E-4
MEAN_MOTION_DOT = .356E-5
MEAN_MOTION_DDOT = 0

CCSDS_OMM_VERS = 2.0
CREATION_DATE  = 
ORIGINATOR     = 

OBJECT_NAME    = COSMOS 1933
OBJECT_ID      = 1988-020A
CENTER_NAME    = EARTH
REF_FRAME      = TEME
TIME_SYSTEM    = UTC
MEAN_ELEMENT_THEORY = SGP/SGP4

EPOCH          = 2025-12-20T09:41:21.913440
MEAN_MOTION    = 15.17168505
ECCENTRICITY   = .00062139
INCLINATION    = 82.5135
RA_OF_ASC_NODE = 329.3053
ARG_OF_PERICENTER = 107.8557
MEAN_ANOMALY   = 252.3354

EPHEMERIS_TYPE = 0
CLASSIFICATION_TYPE = U
NORAD_CAT_ID   = 18958
ELEMENT_SET_NO = 999
REV_AT_EPOCH   = 3820
BSTAR          = .16906865E-3
MEAN_MOTION_DOT = .3387E-4
MEAN_MOTION_DDOT = 0

CCSDS_OMM_VERS = 2.0
CREATION_DATE  = 
ORIGINATOR     = 

OBJECT_NAME    = SL-3 R/B
OBJECT_ID      = 1988-032B
CENTER_NAME    = EARTH
REF_FRAME      = TEME
TIME_SYSTEM    = UTC
MEAN_ELEMENT_THEORY = SGP/SGP4

EPOCH          = 2025-12-20T18:25:24.716352
MEAN_MOTION    = 15.18814318
ECCENTRICITY   = .0027573
INCLINATION    = 97.5084
RA_OF_ASC_NODE = 333.4327
ARG_OF_PERICENTER = 145.5636
MEAN_ANOMALY   = 214.7392

EPHEMERIS_TYPE = 0
CLASSIFICATION_TYPE = U
NORAD_CAT_ID   = 19046
ELEMENT_SET_NO = 999
REV_AT_EPOCH   = 4012
BSTAR          = .17268E-3
MEAN_MOTION_DOT = .3559E-4
MEAN_MOTION_DDOT = 0

CCSDS_OMM_VERS = 2.0
CREATION_DATE  = 
ORIGINATOR     = 

OBJECT_NAME    = SL-16 R/B
OBJECT_ID      = 1988-039B
CENTER_NAME    = EARTH
REF_FRAME      = TEME
TIME_SYSTEM    = UTC
MEAN_ELEMENT_THEORY = SGP/SGP4

EPOCH          = 2025-12-20T18:42:58.905216
MEAN_MOTION    = 14.19598250
ECCENTRICITY   = .001958
INCLINATION    = 71.0134
RA_OF_ASC_NODE = 235.3986
ARG_OF_PERICENTER = 102.5102
MEAN_ANOMALY   = 257.8215

EPHEMERIS_TYPE = 0
CLASSIFICATION_TYPE = U
NORAD_CAT_ID   = 19120
ELEMENT_SET_NO = 999
REV_AT_EPOCH   = 94718
BSTAR          = .10751E-3
MEAN_MOTION_DOT = .179E-5
MEAN_MOTION_DDOT = 0

CCSDS_OMM_VERS = 2.0
CREATION_DATE  = 
ORIGINATOR     = 

OBJECT_NAME    = COSMOS 1953
OBJECT_ID      = 1988-050A
CENTER_NAME    = EARTH
REF_FRAME      = TEME
TIME_SYSTEM    = UTC
MEAN_ELEMENT_THEORY = SGP/SGP4

EPOCH          = 2025-12-17T18:00:23.829120
MEAN_MOTION    = 15.26995692
ECCENTRICITY   = .00135407
INCLINATION    = 82.5093
RA_OF_ASC_NODE = 240.5536
ARG_OF_PERICENTER = 56.0210
MEAN_ANOMALY   = 304.2313

EPHEMERIS_TYPE = 0
CLASSIFICATION_TYPE = U
NORAD_CAT_ID   = 19210
ELEMENT_SET_NO = 999
REV_AT_EPOCH   = 2527
BSTAR          = .17925093E-3
MEAN_MOTION_DOT = .4793E-4
MEAN_MOTION_DDOT = 0

CCSDS_OMM_VERS = 2.0
CREATION_DATE  = 
ORIGINATOR     = 

OBJECT_NAME    = SL-8 R/B
OBJECT_ID      = 1988-053B
CENTER_NAME    = EARTH
REF_FRAME      = TEME
TIME_SYSTEM    = UTC
MEAN_ELEMENT_THEORY = SGP/SGP4

EPOCH          = 2025-12-20T19:33:45.115200
MEAN_MOTION    = 14.38863601
ECCENTRICITY   = .0018963
INCLINATION    = 74.0472
RA_OF_ASC_NODE = 257.8369
ARG_OF_PERICENTER = 98.8872
MEAN_ANOMALY   = 328.1669

EPHEMERIS_TYPE = 0
CLASSIFICATION_TYPE = U
NORAD_CAT_ID   = 19257
ELEMENT_SET_NO = 999
REV_AT_EPOCH   = 96525
BSTAR          = .64881E-4
MEAN_MOTION_DOT = .174E-5
MEAN_MOTION_DDOT = 0

CCSDS_OMM_VERS = 2.0
CREATION_DATE  = 
ORIGINATOR     = 

OBJECT_NAME    = COSMOS 1975
OBJECT_ID      = 1988-093A
CENTER_NAME    = EARTH
REF_FRAME      = TEME
TIME_SYSTEM    = UTC
MEAN_ELEMENT_THEORY = SGP/SGP4

EPOCH          = 2025-12-20T20:14:42.961056
MEAN_MOTION    = 15.26575926
ECCENTRICITY   = .0013072
INCLINATION    = 82.5190
RA_OF_ASC_NODE = 196.7152
ARG_OF_PERICENTER = 87.1430
MEAN_ANOMALY   = 273.1304

EPHEMERIS_TYPE = 0
CLASSIFICATION_TYPE = U
NORAD_CAT_ID   = 19573
ELEMENT_SET_NO = 999
REV_AT_EPOCH   = 737
BSTAR          = .18267E-3
MEAN_MOTION_DOT = .4822E-4
MEAN_MOTION_DDOT = 0

CCSDS_OMM_VERS = 2.0
CREATION_DATE  = 
ORIGINATOR     = 

OBJECT_NAME    = SL-14 R/B
OBJECT_ID      = 1988-093B
CENTER_NAME    = EARTH
REF_FRAME      = TEME
TIME_SYSTEM    = UTC
MEAN_ELEMENT_THEORY = SGP/SGP4

EPOCH          = 2025-12-20T19:12:56.596320
MEAN_MOTION    = 14.85556901
ECCENTRICITY   = .0019412
INCLINATION    = 82.5314
RA_OF_ASC_NODE = 116.1029
ARG_OF_PERICENTER = 301.3419
MEAN_ANOMALY   = 173.7376

EPHEMERIS_TYPE = 0
CLASSIFICATION_TYPE = U
NORAD_CAT_ID   = 19574
ELEMENT_SET_NO = 999
REV_AT_EPOCH   = 98932
BSTAR          = .39749E-4
MEAN_MOTION_DOT = .369E-5
MEAN_MOTION_DDOT = 0

CCSDS_OMM_VERS = 2.0
CREATION_DATE  = 
ORIGINATOR     = 

OBJECT_NAME    = SL-16 R/B
OBJECT_ID      = 1988-102B
CENTER_NAME    = EARTH
REF_FRAME      = TEME
TIME_SYSTEM    = UTC
MEAN_ELEMENT_THEORY = SGP/SGP4

EPOCH          = 2025-12-20T20:44:18.439584
MEAN_MOTION    = 14.16139878
ECCENTRICITY   = .0012605
INCLINATION    = 71.0003
RA_OF_ASC_NODE = 317.3483
ARG_OF_PERICENTER = 137.9379
MEAN_ANOMALY   = 222.2714

EPHEMERIS_TYPE = 0
CLASSIFICATION_TYPE = U
NORAD_CAT_ID   = 19650
ELEMENT_SET_NO = 999
REV_AT_EPOCH   = 91573
BSTAR          = .1549E-3
MEAN_MOTION_DOT = .259E-5
MEAN_MOTION_DDOT = 0

CCSDS_OMM_VERS = 2.0
CREATION_DATE  = 
ORIGINATOR     = 

OBJECT_NAME    = INTERCOSMOS 24
OBJECT_ID      = 1989-080A
CENTER_NAME    = EARTH
REF_FRAME      = TEME
TIME_SYSTEM    = UTC
MEAN_ELEMENT_THEORY = SGP/SGP4

EPOCH          = 2025-12-20T16:31:56.765280
MEAN_MOTION    = 12.59452183
ECCENTRICITY   = .1188978
INCLINATION    = 82.6051
RA_OF_ASC_NODE = 155.7847
ARG_OF_PERICENTER = 116.0879
MEAN_ANOMALY   = 256.7403

EPHEMERIS_TYPE = 0
CLASSIFICATION_TYPE = U
NORAD_CAT_ID   = 20261
ELEMENT_SET_NO = 999
REV_AT_EPOCH   = 65685
BSTAR          = .14428E-3
MEAN_MOTION_DOT = .521E-5
MEAN_MOTION_DDOT = 0

CCSDS_OMM_VERS = 2.0
CREATION_DATE  = 
ORIGINATOR     = 

OBJECT_NAME    = SL-14 R/B
OBJECT_ID      = 1989-080C
CENTER_NAME    = EARTH
REF_FRAME      = TEME
TIME_SYSTEM    = UTC
MEAN_ELEMENT_THEORY = SGP/SGP4

EPOCH          = 2025-12-20T17:52:33.668832
MEAN_MOTION    = 12.50419482
ECCENTRICITY   = .1230525
INCLINATION    = 82.5920
RA_OF_ASC_NODE = 223.8821
ARG_OF_PERICENTER = 5.2964
MEAN_ANOMALY   = 355.9842

EPHEMERIS_TYPE = 0
CLASSIFICATION_TYPE = U
NORAD_CAT_ID   = 20262
ELEMENT_SET_NO = 999
REV_AT_EPOCH   = 65028
BSTAR          = .78145E-4
MEAN_MOTION_DOT = .274E-5
MEAN_MOTION_DDOT = 0

CCSDS_OMM_VERS = 2.0
CREATION_DATE  = 
ORIGINATOR     = 

OBJECT_NAME    = DELTA 1 R/B
OBJECT_ID      = 1989-089B
CENTER_NAME    = EARTH
REF_FRAME      = TEME
TIME_SYSTEM    = UTC
MEAN_ELEMENT_THEORY = SGP/SGP4

EPOCH          = 2025-12-20T20:21:32.915232
MEAN_MOTION    = 14.50577971
ECCENTRICITY   = .0069495
INCLINATION    = 97.0746
RA_OF_ASC_NODE = 209.8005
ARG_OF_PERICENTER = 12.9556
MEAN_ANOMALY   = 347.3406

EPHEMERIS_TYPE = 0
CLASSIFICATION_TYPE = U
NORAD_CAT_ID   = 20323
ELEMENT_SET_NO = 999
REV_AT_EPOCH   = 88430
BSTAR          = .63559E-4
MEAN_MOTION_DOT = .221E-5
MEAN_MOTION_DDOT = 0

CCSDS_OMM_VERS = 2.0
CREATION_DATE  = 
ORIGINATOR     = 

OBJECT_NAME    = ARIANE 40 R/B
OBJECT_ID      = 1990-005H
CENTER_NAME    = EARTH
REF_FRAME      = TEME
TIME_SYSTEM    = UTC
MEAN_ELEMENT_THEORY = SGP/SGP4

EPOCH          = 2025-12-20T15:52:40.554336
MEAN_MOTION    = 14.39803940
ECCENTRICITY   = .0011279
INCLINATION    = 98.3233
RA_OF_ASC_NODE = 52.6154
ARG_OF_PERICENTER = 84.3978
MEAN_ANOMALY   = 275.8497

EPHEMERIS_TYPE = 0
CLASSIFICATION_TYPE = U
NORAD_CAT_ID   = 20443
ELEMENT_SET_NO = 999
REV_AT_EPOCH   = 88143
BSTAR          = .76838E-4
MEAN_MOTION_DOT = .199E-5
MEAN_MOTION_DDOT = 0

